{
    "links": {
        "self": "http://www.neowsapp.com/rest/v1/neo/3819569?api_key=iIulBulltgU6a56xZRHN4H3l9WmuAYTsLGpBGhQ2"
    },
    "id": "3819569",
    "neo_reference_id": "3819569",
    "name": "(2018 HF2)",
    "designation": "2018 HF2",
    "nasa_jpl_url": "http://ssd.jpl.nasa.gov/sbdb.cgi?sstr=3819569",
    "absolute_magnitude_h": 26.2,
    "estimated_diameter": {
        "kilometers": {
            "estimated_diameter_min": 0.0152951935,
            "estimated_diameter_max": 0.0342010925
        },
        "meters": {
            "estimated_diameter_min": 15.2951935344,
            "estimated_diameter_max": 34.201092472
        },
        "miles": {
            "estimated_diameter_min": 0.0095039897,
            "estimated_diameter_max": 0.021251567
        },
        "feet": {
            "estimated_diameter_min": 50.1810827555,
            "estimated_diameter_max": 112.2083122258
        }
    },
    "is_potentially_hazardous_asteroid": false,
    "close_approach_data": [
        {
            "close_approach_date": "1910-06-01",
            "close_approach_date_full": "1910-Jun-01 09:03",
            "epoch_date_close_approach": -1880377020000,
            "relative_velocity": {
                "kilometers_per_second": "6.1823363181",
                "kilometers_per_hour": "22256.4107452232",
                "miles_per_hour": "13829.2681099971"
            },
            "miss_distance": {
                "astronomical": "0.0321278112",
                "lunar": "12.4977185568",
                "kilometers": "4806252.123282144",
                "miles": "2986466.5851118272"
            },
            "orbiting_body": "Earth"
        },
        {
            "close_approach_date": "2018-04-30",
            "close_approach_date_full": "2018-Apr-30 13:38",
            "epoch_date_close_approach": 1525095480000,
            "relative_velocity": {
                "kilometers_per_second": "6.8075154318",
                "kilometers_per_hour": "24507.0555543523",
                "miles_per_hour": "15227.7312693141"
            },
            "miss_distance": {
                "astronomical": "0.0476327504",
                "lunar": "18.5291399056",
                "kilometers": "7125758.002081648",
                "miles": "4427740.7054288224"
            },
            "orbiting_body": "Earth"
        },
        {
            "close_approach_date": "2070-04-21",
            "close_approach_date_full": "2070-Apr-21 10:22",
            "epoch_date_close_approach": 3165301320000,
            "relative_velocity": {
                "kilometers_per_second": "10.5565796333",
                "kilometers_per_hour": "38003.6866800424",
                "miles_per_hour": "23614.0129818297"
            },
            "miss_distance": {
                "astronomical": "0.0528189253",
                "lunar": "20.5465619417",
                "kilometers": "7901598.720569111",
                "miles": "4909825.7733152918"
            },
            "orbiting_body": "Mars"
        }
    ],
    "orbital_data": {
        "orbit_id": "2",
        "orbit_determination_date": "2018-05-27 06:21:30",
        "first_observation_date": "2018-04-23",
        "last_observation_date": "2018-05-24",
        "data_arc_in_days": 31,
        "observations_used": 30,
        "orbit_uncertainty": "8",
        "minimum_orbit_intersection": ".0190926",
        "jupiter_tisserand_invariant": "3.892",
        "epoch_osculation": "2458251.5",
        "eccentricity": ".4405765887493006",
        "semi_major_axis": "1.842518594633101",
        "inclination": "1.356051665581637",
        "ascending_node_longitude": "65.3997660320005",
        "orbital_period": "913.5161845026782",
        "perihelion_distance": "1.030748037502494",
        "perihelion_argument": "171.8770801844985",
        "aphelion_distance": "2.654289151763708",
        "perihelion_time": "2458253.031317374566",
        "mean_anomaly": "359.3965358641742",
        "mean_motion": ".3940816879954737",
        "equinox": "J2000",
        "orbit_class": {
            "orbit_class_type": "AMO",
            "orbit_class_description": "Near-Earth asteroid orbits similar to that of 1221 Amor",
            "orbit_class_range": "1.017 AU < q (perihelion) < 1.3 AU"
        }
    },
    "is_sentry_object": false
}